LEMUR-1                 
1 40044U 14033AL  26095.39126355  .00002883  00000+0  33812-3 0  9999
2 40044  97.7772 246.8688 0047548 318.1497  41.6086 14.84943994634661
LEMUR-2-GREENBERG       
1 42837U 17042N   26095.49936375  .00021535  00000+0  76307-3 0  9997
2 42837  97.3799 276.5924 0008075 259.8450 100.1880 15.29094313477270
LEMUR-2-ANDIS           
1 42838U 17042P   26095.48360405  .00028612  00000+0  92649-3 0  9992
2 42838  97.3673 276.5408 0008361 261.6475  98.3818 15.31955718477317
LEMUR-2-MONSON          
1 42839U 17042Q   26095.48735281  .00020404  00000+0  79419-3 0  9992
2 42839  97.4056 276.6521 0005845 245.2233 114.8398 15.26017830477073
LEMUR-2-FURIAUS         
1 42840U 17042R   26095.56773279  .00028544  00000+0  10538-2 0  9991
2 42840  97.3759 274.7884 0006816 321.0441  39.0307 15.27696873477112
LEMUR-2-PETERG          
1 42841U 17042S   26095.48780427  .00026814  00000+0  89321-3 0  9991
2 42841  97.3992 280.5641 0003428 226.5955 133.5001 15.31084099477301
LEMUR-2-DEMBITZ         
1 42842U 17042T   26095.53039569  .00023357  00000+0  85323-3 0  9999
2 42842  97.3817 277.7009 0005915 272.7431  87.3131 15.28092318477241
LEMUR-2-ZACHARY         
1 42845U 17042W   26095.49672683  .00048138  00000+0  10338-2 0  9994
2 42845  97.3650 285.8960 0003241 268.6775  91.4103 15.44542717477965
LEMUR-2-JIN-LUEN        
1 43182U 18014C   26095.54452206  .02032016  40095-2  19978-2 0  9992
2 43182  97.5374  28.7482 0010876 161.7624 198.4053 16.12308935449730
LEMUR-2-KADI            
1 43184U 18014E   26095.23380638  .00167383  00000+0  13338-2 0  9996
2 43184  97.4621  21.5585 0006381 123.2056 236.9819 15.70639509449543
LEMUR-2-AMANDA-SVANTE   
1 48269U 21034B   26095.47249887  .00038569  00000+0  13140-2 0  9991
2 48269  97.5792 172.0731 0004307 140.5639 219.5916 15.30273929269925
LEMUR-2-SPECIAL-K       
1 48273U 21034F   26095.48708590  .00108128  00000+0  19064-2 0  9998
2 48273  97.5674 178.0329 0002174 187.2944 172.8276 15.50016638270381
LEMUR-2-EMBRIONOVIS     
1 56970U 23084AQ  26095.33141083  .00021603  00000+0  62397-3 0  9990
2 56970  97.6186 236.8883 0008711 207.2282 152.8505 15.35646521156493
LEMUR-2-MANO            
1 57390U 23100E   26095.04248107  .00201176  00000+0  16107-2 0  9991
2 57390  99.4461 126.5031 0008599 189.3739 170.7358 15.70389943150600
LEMUR-2-DEVERILL-M-T    
1 57391U 23100F   26095.56299550  .00028972  00000+0  81649-3 0  9992
2 57391  99.4552 113.5691 0005425 283.5101  76.5532 15.36399859150083
LEMUR-2-BASS            
1 58259U 23174D   26095.20116151  .00022285  00000+0  54400-3 0  9999
2 58259  97.3853 179.0277 0008279  79.3692 280.8487 15.40833700134119
