[{"OBJECT_NAME":"LEMUR-1","OBJECT_ID":"2014-033AL","EPOCH":"2026-04-05T09:23:25.170720","MEAN_MOTION":14.84943994,"ECCENTRICITY":0.00475482,"INCLINATION":97.7772,"RA_OF_ASC_NODE":246.8688,"ARG_OF_PERICENTER":318.1497,"MEAN_ANOMALY":41.6086,"EPHEMERIS_TYPE":0,"CLASSIFICATION_TYPE":"U","NORAD_CAT_ID":40044,"ELEMENT_SET_NO":999,"REV_AT_EPOCH":63466,"BSTAR":0.00033812212,"MEAN_MOTION_DOT":2.883e-5,"MEAN_MOTION_DDOT":0},{"OBJECT_NAME":"LEMUR-2-GREENBERG","OBJECT_ID":"2017-042N","EPOCH":"2026-04-05T11:59:05.028000","MEAN_MOTION":15.29094313,"ECCENTRICITY":0.00080755,"INCLINATION":97.3799,"RA_OF_ASC_NODE":276.5924,"ARG_OF_PERICENTER":259.845,"MEAN_ANOMALY":100.188,"EPHEMERIS_TYPE":0,"CLASSIFICATION_TYPE":"U","NORAD_CAT_ID":42837,"ELEMENT_SET_NO":999,"REV_AT_EPOCH":47727,"BSTAR":0.00076307315,"MEAN_MOTION_DOT":0.00021535,"MEAN_MOTION_DDOT":0},{"OBJECT_NAME":"LEMUR-2-ANDIS","OBJECT_ID":"2017-042P","EPOCH":"2026-04-05T11:36:23.389920","MEAN_MOTION":15.31955718,"ECCENTRICITY":0.00083612,"INCLINATION":97.3673,"RA_OF_ASC_NODE":276.5408,"ARG_OF_PERICENTER":261.6475,"MEAN_ANOMALY":98.3818,"EPHEMERIS_TYPE":0,"CLASSIFICATION_TYPE":"U","NORAD_CAT_ID":42838,"ELEMENT_SET_NO":999,"REV_AT_EPOCH":47731,"BSTAR":0.00092649481,"MEAN_MOTION_DOT":0.00028612,"MEAN_MOTION_DDOT":0},{"OBJECT_NAME":"LEMUR-2-MONSON","OBJECT_ID":"2017-042Q","EPOCH":"2026-04-05T11:41:47.282784","MEAN_MOTION":15.2601783,"ECCENTRICITY":0.0005845,"INCLINATION":97.4056,"RA_OF_ASC_NODE":276.6521,"ARG_OF_PERICENTER":245.2233,"MEAN_ANOMALY":114.8398,"EPHEMERIS_TYPE":0,"CLASSIFICATION_TYPE":"U","NORAD_CAT_ID":42839,"ELEMENT_SET_NO":999,"REV_AT_EPOCH":47707,"BSTAR":0.00079419348,"MEAN_MOTION_DOT":0.00020404,"MEAN_MOTION_DDOT":0},{"OBJECT_NAME":"LEMUR-2-FURIAUS","OBJECT_ID":"2017-042R","EPOCH":"2026-04-05T13:37:32.113056","MEAN_MOTION":15.27696873,"ECCENTRICITY":0.00068161,"INCLINATION":97.3759,"RA_OF_ASC_NODE":274.7884,"ARG_OF_PERICENTER":321.0441,"MEAN_ANOMALY":39.0307,"EPHEMERIS_TYPE":0,"CLASSIFICATION_TYPE":"U","NORAD_CAT_ID":42840,"ELEMENT_SET_NO":999,"REV_AT_EPOCH":47711,"BSTAR":0.0010538023,"MEAN_MOTION_DOT":0.00028544,"MEAN_MOTION_DDOT":0},{"OBJECT_NAME":"LEMUR-2-PETERG","OBJECT_ID":"2017-042S","EPOCH":"2026-04-05T11:42:26.288928","MEAN_MOTION":15.31084099,"ECCENTRICITY":0.00034286,"INCLINATION":97.3992,"RA_OF_ASC_NODE":280.5641,"ARG_OF_PERICENTER":226.5955,"MEAN_ANOMALY":133.5001,"EPHEMERIS_TYPE":0,"CLASSIFICATION_TYPE":"U","NORAD_CAT_ID":42841,"ELEMENT_SET_NO":999,"REV_AT_EPOCH":47730,"BSTAR":0.0008932139,"MEAN_MOTION_DOT":0.00026814,"MEAN_MOTION_DDOT":0},{"OBJECT_NAME":"LEMUR-2-DEMBITZ","OBJECT_ID":"2017-042T","EPOCH":"2026-04-05T12:43:46.187616","MEAN_MOTION":15.28092318,"ECCENTRICITY":0.00059151,"INCLINATION":97.3817,"RA_OF_ASC_NODE":277.7009,"ARG_OF_PERICENTER":272.7431,"MEAN_ANOMALY":87.3131,"EPHEMERIS_TYPE":0,"CLASSIFICATION_TYPE":"U","NORAD_CAT_ID":42842,"ELEMENT_SET_NO":999,"REV_AT_EPOCH":47724,"BSTAR":0.00085323368,"MEAN_MOTION_DOT":0.00023357,"MEAN_MOTION_DDOT":0},{"OBJECT_NAME":"LEMUR-2-ZACHARY","OBJECT_ID":"2017-042W","EPOCH":"2026-04-05T11:55:17.198112","MEAN_MOTION":15.44542717,"ECCENTRICITY":0.00032417,"INCLINATION":97.365,"RA_OF_ASC_NODE":285.896,"ARG_OF_PERICENTER":268.6775,"MEAN_ANOMALY":91.4103,"EPHEMERIS_TYPE":0,"CLASSIFICATION_TYPE":"U","NORAD_CAT_ID":42845,"ELEMENT_SET_NO":999,"REV_AT_EPOCH":47796,"BSTAR":0.001033755,"MEAN_MOTION_DOT":0.00048138,"MEAN_MOTION_DDOT":0},{"OBJECT_NAME":"LEMUR-2-JIN-LUEN","OBJECT_ID":"2018-014C","EPOCH":"2026-04-05T13:04:06.705984","MEAN_MOTION":16.12308935,"ECCENTRICITY":0.00108769,"INCLINATION":97.5374,"RA_OF_ASC_NODE":28.7482,"ARG_OF_PERICENTER":161.7624,"MEAN_ANOMALY":198.4053,"EPHEMERIS_TYPE":0,"CLASSIFICATION_TYPE":"U","NORAD_CAT_ID":43182,"ELEMENT_SET_NO":999,"REV_AT_EPOCH":44973,"BSTAR":0.0019977961,"MEAN_MOTION_DOT":0.02032016,"MEAN_MOTION_DDOT":0.0040094858},{"OBJECT_NAME":"LEMUR-2-KADI","OBJECT_ID":"2018-014E","EPOCH":"2026-04-05T05:36:40.871232","MEAN_MOTION":15.70639509,"ECCENTRICITY":0.0006381,"INCLINATION":97.4621,"RA_OF_ASC_NODE":21.5585,"ARG_OF_PERICENTER":123.2056,"MEAN_ANOMALY":236.9819,"EPHEMERIS_TYPE":0,"CLASSIFICATION_TYPE":"U","NORAD_CAT_ID":43184,"ELEMENT_SET_NO":999,"REV_AT_EPOCH":44954,"BSTAR":0.0013338,"MEAN_MOTION_DOT":0.00167383,"MEAN_MOTION_DDOT":0},{"OBJECT_NAME":"LEMUR-2-AMANDA-SVANTE","OBJECT_ID":"2021-034B","EPOCH":"2026-04-05T11:20:23.902368","MEAN_MOTION":15.30273929,"ECCENTRICITY":0.00043077,"INCLINATION":97.5792,"RA_OF_ASC_NODE":172.0731,"ARG_OF_PERICENTER":140.5639,"MEAN_ANOMALY":219.5916,"EPHEMERIS_TYPE":0,"CLASSIFICATION_TYPE":"U","NORAD_CAT_ID":48269,"ELEMENT_SET_NO":999,"REV_AT_EPOCH":26992,"BSTAR":0.0013140452,"MEAN_MOTION_DOT":0.00038569,"MEAN_MOTION_DDOT":0},{"OBJECT_NAME":"LEMUR-2-SPECIAL-K","OBJECT_ID":"2021-034F","EPOCH":"2026-04-05T11:41:24.221760","MEAN_MOTION":15.50016638,"ECCENTRICITY":0.00021744,"INCLINATION":97.5674,"RA_OF_ASC_NODE":178.0329,"ARG_OF_PERICENTER":187.2944,"MEAN_ANOMALY":172.8276,"EPHEMERIS_TYPE":0,"CLASSIFICATION_TYPE":"U","NORAD_CAT_ID":48273,"ELEMENT_SET_NO":999,"REV_AT_EPOCH":27038,"BSTAR":0.0019064012,"MEAN_MOTION_DOT":0.00108128,"MEAN_MOTION_DDOT":0},{"OBJECT_NAME":"LEMUR-2-EMBRIONOVIS","OBJECT_ID":"2023-084AQ","EPOCH":"2026-04-05T07:57:13.895712","MEAN_MOTION":15.35646521,"ECCENTRICITY":0.0008711,"INCLINATION":97.6186,"RA_OF_ASC_NODE":236.8883,"ARG_OF_PERICENTER":207.2282,"MEAN_ANOMALY":152.8505,"EPHEMERIS_TYPE":0,"CLASSIFICATION_TYPE":"U","NORAD_CAT_ID":56970,"ELEMENT_SET_NO":999,"REV_AT_EPOCH":15649,"BSTAR":0.00062397,"MEAN_MOTION_DOT":0.00021603,"MEAN_MOTION_DDOT":0},{"OBJECT_NAME":"LEMUR-2-MANO","OBJECT_ID":"2023-100E","EPOCH":"2026-04-05T01:01:10.364448","MEAN_MOTION":15.70389943,"ECCENTRICITY":0.00085996,"INCLINATION":99.4461,"RA_OF_ASC_NODE":126.5031,"ARG_OF_PERICENTER":189.3739,"MEAN_ANOMALY":170.7358,"EPHEMERIS_TYPE":0,"CLASSIFICATION_TYPE":"U","NORAD_CAT_ID":57390,"ELEMENT_SET_NO":999,"REV_AT_EPOCH":15060,"BSTAR":0.0016106762,"MEAN_MOTION_DOT":0.00201176,"MEAN_MOTION_DDOT":0},{"OBJECT_NAME":"LEMUR-2-DEVERILL-M-T","OBJECT_ID":"2023-100F","EPOCH":"2026-04-05T13:30:42.811200","MEAN_MOTION":15.36399859,"ECCENTRICITY":0.00054254,"INCLINATION":99.4552,"RA_OF_ASC_NODE":113.5691,"ARG_OF_PERICENTER":283.5101,"MEAN_ANOMALY":76.5532,"EPHEMERIS_TYPE":0,"CLASSIFICATION_TYPE":"U","NORAD_CAT_ID":57391,"ELEMENT_SET_NO":999,"REV_AT_EPOCH":15008,"BSTAR":0.00081648565,"MEAN_MOTION_DOT":0.00028972,"MEAN_MOTION_DDOT":0},{"OBJECT_NAME":"LEMUR-2-BASS","OBJECT_ID":"2023-174D","EPOCH":"2026-04-05T04:49:40.354464","MEAN_MOTION":15.408337,"ECCENTRICITY":0.00082797,"INCLINATION":97.3853,"RA_OF_ASC_NODE":179.0277,"ARG_OF_PERICENTER":79.3692,"MEAN_ANOMALY":280.8487,"EPHEMERIS_TYPE":0,"CLASSIFICATION_TYPE":"U","NORAD_CAT_ID":58259,"ELEMENT_SET_NO":999,"REV_AT_EPOCH":13411,"BSTAR":0.00054400121,"MEAN_MOTION_DOT":0.00022285,"MEAN_MOTION_DDOT":0}]
